[Satellite]
VERSION=1.1
NAME=NO-104
NICKNAME=NO-104
TLE1=1 44354U 19036R   22342.49592735  .00154774 -68864-7  73895-3 0  9999
TLE2=2 44354  28.5209  31.1208 0141600 166.4619 193.9840 15.67936672191735
STATUS=0
